CUTE-1 (CO-55)          
1 27844U 03031E   25070.94866306  .00000710  00000+0  32902-3 0  9994
2 27844  98.6794  80.3712 0010885  88.3973 271.8452 14.23863858125882
CUBESAT XI-IV (CO-57)   
1 27848U 03031J   25070.50413194  .00000594  00000+0  28172-3 0  9997
2 27848  98.6823  80.0054 0010758 104.5921 255.6451 14.23217138125555
CUBESAT XI-V            
1 28895U 05043F   25070.64806430  .00003640  00000+0  60934-3 0  9996
2 28895  98.2330 213.9808 0014264 228.8429 131.1547 14.70372686 33723
CUTE-1.7+APD II (CO-65) 
1 32785U 08021C   25071.17466423  .00009935  00000+0  74582-3 0  9998
2 32785  97.7775  41.8164 0011842 141.5016 218.7056 15.02769900915718
AAUSAT-II               
1 32788U 08021F   25070.70304843  .00137157  00000+0  20669-2 0  9990
2 32788  97.6059  63.8133 0003873  95.9007 264.2687 15.54302355919277
CANX-2                  
1 32790U 08021H   25070.85134984  .00008240  00000+0  66037-3 0  9996
2 32790  97.8025  40.0390 0013674 135.0265 225.2068 15.00317396915356
SEEDS II (CO-66)        
1 32791U 08021J   25070.87853603  .00021992  00000+0  11763-2 0  9999
2 32791  97.7216  49.1628 0007014 105.9093 254.2912 15.15057433916976
SWISSCUBE               
1 35932U 09051B   25070.64996779  .00002225  00000+0  46434-3 0  9992
2 35932  98.4412 325.1756 0006191 201.2830 158.8113 14.60919744821580
BEESAT-1                
1 35933U 09051C   25070.65826852  .00001903  00000+0  40322-3 0  9990
2 35933  98.4340 325.6952 0004408 214.0040 146.0878 14.60396122821641
ITUPSAT1                
1 35935U 09051E   25070.94463836  .00001741  00000+0  37932-3 0  9996
2 35935  98.4434 325.5991 0006560 225.7231 134.3431 14.59223556821295
TISAT 1                 
1 36799U 10035E   25070.97818859  .00018618  00000+0  10522-2 0  9997
2 36799  98.0647 339.6421 0005490  60.3495 299.8280 15.13143283797601
AEROCUBE 4.5A           
1 38767U 12048K   25070.63191701  .00031039  00000+0  98848-3 0  9993
2 38767  64.6506 164.0204 0106955 299.0061  60.0381 15.26971852301053
STRAND-1                
1 39090U 13009E   25071.18685129  .00000768  00000+0  27507-3 0  9993
2 39090  98.3818 258.2299 0009036 165.3712 194.7738 14.36685023630736
BRITE-AUSTRIA           
1 39091U 13009F   25070.95279872  .00000469  00000+0  17534-3 0  9999
2 39091  98.3870 257.2671 0010379 174.2618 185.8689 14.36219863630690
NEE-01 PEGASO           
1 39151U 13018B   25070.89126757  .00006530  00000+0  68537-3 0  9996
2 39151  98.0577 197.8651 0013078 241.5358 118.4541 14.89792803641782
ESTCUBE 1               
1 39161U 13021C   25071.13814517  .00003537  00000+0  48394-3 0  9990
2 39161  97.7916 135.4482 0009865  83.9506 276.2830 14.79106338636709
POPACS 1                
1 39268U 13055D   25070.76731604  .00053174  29975-7  60283-3 0  9991
2 39268  80.9773 196.5385 0287643 290.3533  66.7012 15.25455849600877
POPACS 2                
1 39269U 13055E   25070.90855486  .00022299  00000+0  45818-3 0  9994
2 39269  80.9973 305.6315 0493563 217.7260 138.8379 14.71300976594763
POPACS 3                
1 39270U 13055F   25070.79128810  .00022824  00000+0  58669-3 0  9999
2 39270  81.0096   6.5988 0595786  27.9904 335.2008 14.45147190571509
ZACUBE-1 (TSHEPISOSAT)  
1 39417U 13066B   25070.82858250  .00010977  00000+0  98542-3 0  9996
2 39417  97.7701  28.4540 0045280 355.0967   4.9804 14.95105798611499
WNISAT-1                
1 39423U 13066H   25070.90095072  .00002226  00000+0  42304-3 0  9990
2 39423  97.6710 249.7871 0165298 247.5261 110.8364 14.56686133599390
TRITON-1                
1 39427U 13066M   25071.21685179  .00006096  00000+0  78799-3 0  9998
2 39427  97.8401 347.2927 0094446 297.0021  62.1571 14.78163287605941
DELFI-N3XT              
1 39428U 13066N   25070.82766258  .00013257  00000+0  14115-2 0  9991
2 39428  97.8368 349.5975 0086340 296.6917  62.5478 14.86305167605916
GOMX-1                  
1 39430U 13066Q   25071.15892415  .00003711  00000+0  58473-3 0  9996
2 39430  97.6969 295.2765 0135030 118.2482 243.2431 14.67024236602294
CUBEBUG-2 (LO-74)       
1 39440U 13066AA  25071.12443241  .00007844  00000+0  81585-3 0  9994
2 39440  97.8413  16.4236 0065617 114.1662 246.6434 14.88532957609323
NEE-02 KRYSAOR          
1 39441U 13066AB  25070.77535875  .00004211  00000+0  49597-3 0  9992
2 39441  97.8482  10.5519 0071038 142.5326 218.0871 14.83510451607567
FUNCUBE-1 (AO-73)       
1 39444U 13066AE  25070.84357579  .00015486  00000+0  12254-2 0  9991
2 39444  97.7579  32.6503 0040628 332.4893  27.4179 15.00046163610127
UWE-3                   
1 39446U 13066AG  25070.82557634  .00008943  00000+0  87243-3 0  9996
2 39446  97.8147  22.3744 0056758  57.8584 302.8124 14.91446522608523
BRITE-CA1 (TORONTO)     
1 40020U 14033L   25071.08294737  .00001955  00000+0  31027-3 0  9997
2 40020  97.9095 205.7189 0079789 316.5510  42.9426 14.71190171574342
DUCHIFAT-1              
1 40021U 14033M   25070.76501713  .00029945  00000+0  12785-2 0  9995
2 40021  98.1011  77.6272 0006880 265.0747  94.9702 15.22824865584622
NANOSATC-BR1            
1 40024U 14033Q   25070.49528788  .00018834  00000+0  10188-2 0  9999
2 40024  98.0892  62.3896 0005067  18.9364 341.2053 15.14707839583550
QB50P1                  
1 40025U 14033R   25071.18834022  .00016076  00000+0  10437-2 0  9991
2 40025  98.0766  48.9838 0011392  12.7089 347.4423 15.08090164583661
QB50P2                  
1 40032U 14033Y   25070.83533293  .00013378  00000+0  91624-3 0  9996
2 40032  98.0353  38.2656 0006950 318.3234  41.7461 15.06186482582855
PERSEUS-M2              
1 40037U 14033AD  25071.12730312  .00003556  00000+0  34633-3 0  9999
2 40037  97.9488   9.6645 0013619  36.7587 323.4563 14.93094538582273
PERSEUS-M1              
1 40039U 14033AF  25071.04453732  .00003854  00000+0  37543-3 0  9994
2 40039  97.9242   4.8293 0013400  36.3931 323.8196 14.93033978582127
POLYITAN-1              
1 40042U 14033AJ  25070.99084340  .00022747  00000+0  12298-2 0  9997
2 40042  98.0989  55.1492 0008396 320.3096  39.7519 15.14666564583712
TIGRISAT                
1 40043U 14033AK  25070.84384617  .00005611  00000+0  69351-3 0  9996
2 40043  97.7213 229.1088 0052928 149.1032 211.3314 14.82174308577369
AEROCUBE 6A             
1 40045U 14033AM  25071.04114939  .00011265  00000+0  11365-2 0  9992
2 40045  97.6835 241.5416 0045068 117.8636 242.7159 14.90489038577837
AEROCUBE 6B             
1 40046U 14033AN  25070.50035369  .00010507  00000+0  10335-2 0  9996
2 40046  97.6818 240.0139 0043722 113.5828 246.9992 14.91561554577595
CANX-4                  
1 40055U 14034C   25071.10860378  .00002313  00000+0  31403-3 0  9996
2 40055  98.3742 283.1030 0014110  57.2145 303.0423 14.79837930576180
CANX-5                  
1 40056U 14034D   25070.84134857  .00002208  00000+0  30005-3 0  9993
2 40056  98.3746 282.8417 0014110  58.1361 302.1220 14.79848977566929
UKUBE-1                 
1 40074U 14037F   25071.10821384  .00014951  00000+0  11197-2 0  9992
2 40074  98.3837  25.8067 0001195  65.4159 294.7189 15.02825965578899
BRITE-PL2 (HEWELIUSZ)   
1 40119U 14049B   25070.83701933  .00004973  00000+0  49739-3 0  9998
2 40119  97.8830 175.9650 0014700 196.8591 163.2140 14.91822514572442
AEROCUBE 5C             
1 40965U 15058B   25070.89238808  .00007241  00000+0  61228-3 0  9998
2 40965  64.7667 256.9135 0177314 228.1359 130.4507 14.87336703296791
AEROCUBE 7              
1 40966U 15058C   25070.94646124  .00009984  00000+0  79088-3 0  9998
2 40966  64.7628 247.3530 0170018 227.9217 130.7331 14.90289424296931
FOX-1A (AO-85)          
1 40967U 15058D   25071.05412595  .00006240  00000+0  54285-3 0  9999
2 40967  64.7746 271.2480 0174184 223.4807 135.2460 14.86821877 44750
SINOD-D 1               
1 40968U 15058E   25070.88677673  .00009677  00000+0  78095-3 0  9992
2 40968  64.7743 261.1514 0165188 222.5534 136.2682 14.90197645 47625
SNAP-3 ALICE            
1 40970U 15058G   25070.68255400  .00043663  00000+0  20275-2 0  9992
2 40970  64.7646 196.4646 0111278 222.3429 136.9068 15.14351247 46023
LMRST-SAT               
1 40971U 15058H   25070.97931085  .00006101  00000+0  53048-3 0  9996
2 40971  64.7746 267.1158 0176150 224.9267 133.7478 14.86637058 44749
SNAP-3 EDDIE            
1 40972U 15058J   25070.68833039  .00044478  00000+0  20413-2 0  9993
2 40972  64.7621 189.2521 0110850 223.4178 135.8177 15.14774384 48132
PROPCUBE 3              
1 40973U 15058K   25071.21467713  .00009645  00000+0  78211-3 0  9993
2 40973  64.7675 251.1995 0171301 226.5125 132.1640 14.89317719 45879
BISONSAT                
1 40974U 15058L   25070.81083383  .00026169  00000+0  15943-2 0  9998
2 40974  64.7634 213.7915 0138492 224.9218 134.0629 15.02586765 45817
SNAP-3 JIMI             
1 40975U 15058M   25070.82169263  .00015665  00000+0  11327-2 0  9993
2 40975  64.7656 235.0652 0157806 225.7804 133.0263 14.94683143 44929
PROPCUBE 1 (FLORA)      
1 40976U 15058N   25070.85963508  .00005179  00000+0  46984-3 0  9998
2 40976  64.7743 284.4876 0175498 226.4848 132.1567 14.85347743 47491
SINOD-D 3               
1 40977U 15058P   25070.84762970  .00007557  00000+0  63673-3 0  9994
2 40977  64.7721 274.4373 0166524 225.7617 132.9724 14.88681807 45794
HORYU-4                 
1 41340U 16012D   25070.97141180  .00031206  00000+0  10002-2 0  9993
2 41340  30.9994  12.3048 0007834 222.0613 137.9430 15.31127939499015
RAVAN                   
1 41849U 16067B   25071.03499266  .00021883  00000+0  83860-3 0  9999
2 41849  98.0539 272.8270 0010094 185.6617 174.4507 15.26501195456668
CELTEE 1                
1 41850U 16067C   25070.80976233  .00010047  00000+0  57402-3 0  9992
2 41850  98.1087 261.6187 0001332  44.2242 315.9093 15.12925391455801
OPTICUBE 04             
1 41851U 16067D   25070.44585798  .00005565  00000+0  38189-3 0  9995
2 41851  98.0921 253.6647 0016078 237.6238 122.3432 15.06344407455427
